[{"OBJECT_NAME":"WORLDVIEW-2 (WV-2)","OBJECT_ID":"2009-055A","EPOCH":"2026-03-09T22:27:15.689664","MEAN_MOTION":14.37910721,"ECCENTRICITY":0.00050548,"INCLINATION":98.4692,"RA_OF_ASC_NODE":143.7977,"ARG_OF_PERICENTER":144.7175,"MEAN_ANOMALY":215.4347,"EPHEMERIS_TYPE":0,"CLASSIFICATION_TYPE":"U","NORAD_CAT_ID":35946,"ELEMENT_SET_NO":999,"REV_AT_EPOCH":86138,"BSTAR":7.9928144e-5,"MEAN_MOTION_DOT":1.98e-6,"MEAN_MOTION_DDOT":0},{"OBJECT_NAME":"REX 1","OBJECT_ID":"1991-045A","EPOCH":"2026-03-09T13:20:45.272256","MEAN_MOTION":14.23562891,"ECCENTRICITY":0.00667508,"INCLINATION":89.5234,"RA_OF_ASC_NODE":265.5233,"ARG_OF_PERICENTER":312.2979,"MEAN_ANOMALY":47.2566,"EPHEMERIS_TYPE":0,"CLASSIFICATION_TYPE":"U","NORAD_CAT_ID":21527,"ELEMENT_SET_NO":999,"REV_AT_EPOCH":80092,"BSTAR":5.4621113e-5,"MEAN_MOTION_DOT":1.39e-6,"MEAN_MOTION_DDOT":0}]
